     2.100          NAVIGATION                              RINEX VERSION / TYPE
fic2rin                                 05/15/2015 21:33:27 PGM / RUN BY / DATE
                                                            END OF HEADER
13 15  1  2  4  0  0.0 -.749747268856D-04 -.341060513165D-11  .000000000000D+00
     .450000000000D+02  .813125000000D+02  .396909390012D-08 -.145195220334D+01
     .423379242420D-05  .586331926752D-02  .108964741230D-04  .515588987350D+04
     .446400000000D+06 -.102445483208D-06  .290021916682D+01 -.279396772385D-07
     .975765093447D+00  .179937500000D+03  .219974393189D+01 -.769532054099D-08
    -.400016662300D-10  .100000000000D+01  .182500000000D+04  .000000000000D+00
     .240000000000D+01  .000000000000D+00 -.111758708954D-07  .450000000000D+02
     .439206000000D+06  .400000000000D+01
14 15  1  2  4  0  0.0  .100724864751D-03 -.352429196937D-11  .000000000000D+00
     .940000000000D+02  .831562500000D+02  .417481675502D-08  .425782227973D+00
     .418908894062D-05  .774820626248D-02  .103469938040D-04  .515377338982D+04
     .446400000000D+06 -.124797224998D-06  .286662532609D+01  .409781932831D-07
     .968252277651D+00  .185093750000D+03 -.196783790672D+01 -.787997108957D-08
    -.133219834855D-09  .100000000000D+01  .182500000000D+04  .000000000000D+00
     .240000000000D+01  .000000000000D+00 -.931322574615D-08  .940000000000D+02
     .439206000000D+06  .400000000000D+01
15 15  1  2  4  0  0.0 -.223880633712D-03 -.227373675443D-11  .000000000000D+00
     .107000000000D+03  .594375000000D+02  .487663170271D-08 -.248011622382D+00
     .320747494698D-05  .697410292923D-02  .103525817394D-04  .515357581139D+04
     .446400000000D+06  .931322574615D-07  .274742116825D+01  .353902578354D-07
     .934789207163D+00  .165343750000D+03  .350048135196D+00 -.820712757409D-08
    -.174650132022D-09  .100000000000D+01  .182500000000D+04  .000000000000D+00
     .340000000000D+01  .000000000000D+00 -.102445483208D-07  .107000000000D+03
     .439206000000D+06  .400000000000D+01
16 15  1  2  4  0  0.0 -.168378930539D-03  .306954461848D-11  .000000000000D+00
     .660000000000D+02 -.101000000000D+03  .407338395851D-08  .153578712013D+01
    -.497698783875D-05  .788336002734D-02  .436231493950D-05  .515372547722D+04
     .446400000000D+06  .335276126862D-07 -.133555453681D+01  .167638063431D-06
     .989366016917D+00  .311187500000D+03  .228813135466D+00 -.809176562595D-08
    -.408945605655D-09  .100000000000D+01  .182500000000D+04  .000000000000D+00
     .240000000000D+01  .000000000000D+00 -.102445483208D-07  .660000000000D+02
     .439206000000D+06  .400000000000D+01
17 15  1  2  4  0  0.0 -.147556886077D-03 -.227373675443D-11  .000000000000D+00
     .970000000000D+02 -.675625000000D+02  .409552773803D-08  .612857908335D+00
    -.342354178429D-05  .992685556412D-02  .109579414129D-04  .515369842720D+04
     .446400000000D+06 -.987201929092D-07 -.306745659108D+00  .763684511185D-07
     .971301623594D+00  .178187500000D+03 -.206116227863D+01 -.786497046473D-08
     .939324840936D-10  .100000000000D+01  .182500000000D+04  .000000000000D+00
     .340000000000D+01  .000000000000D+00 -.107102096081D-07  .970000000000D+02
     .439206000000D+06  .400000000000D+01
18 15  1  2  4  0  0.0  .369349960238D-03  .272848410532D-11  .000000000000D+00
     .290000000000D+02 -.282500000000D+02  .541379693494D-08  .209615872280D+01
    -.162050127983D-05  .155557390535D-01  .670552253723D-05  .515374740028D+04
     .446400000000D+06 -.372529029846D-08  .172778634931D+01 -.346451997757D-06
     .924810565409D+00  .230093750000D+03 -.199844143904D+01 -.829141679936D-08
    -.316084594764D-09  .100000000000D+01  .182500000000D+04  .000000000000D+00
     .240000000000D+01  .000000000000D+00 -.111758708954D-07  .290000000000D+02
     .439206000000D+06  .400000000000D+01
19 15  1  2  4  0  0.0 -.494953244925D-03 -.159161572810D-11  .000000000000D+00
     .200000000000D+02 -.620312500000D+02  .417410243955D-08 -.221139681024D+00
    -.326521694660D-05  .108119826764D-01  .110808759928D-04  .515368629837D+04
     .446400000000D+06  .651925802231D-07 -.256672780594D+00  .152736902237D-06
     .968399080017D+00  .168218750000D+03  .515297709795D+00 -.793175896103D-08
     .205722854897D-09  .100000000000D+01  .182500000000D+04  .000000000000D+00
     .240000000000D+01  .000000000000D+00 -.149011611938D-07  .200000000000D+02
     .439206000000D+06  .400000000000D+01
20 15  1  2  4  0  0.0  .274047255516D-03  .420641299570D-11  .000000000000D+00
     .430000000000D+02 -.262500000000D+02  .547879964257D-08  .248699047734D+01
    -.137835741043D-05  .582361698616D-02  .638142228127D-05  .515577668571D+04
     .446400000000D+06  .104308128357D-06  .167494718487D+01 -.502914190292D-07
     .925945724007D+00  .236250000000D+03  .123857843611D+01 -.835641950699D-08
    -.361086469272D-09  .100000000000D+01  .182500000000D+04  .000000000000D+00
     .240000000000D+01  .000000000000D+00 -.838190317154D-08  .430000000000D+02
     .439206000000D+06  .400000000000D+01
21 15  1  2  4  0  0.0 -.403719022870D-03 -.227373675443D-11  .000000000000D+00
     .750000000000D+02  .180312500000D+02  .518343019639D-08  .308336177437D+01
     .746920704842D-06  .219367471291D-01  .645965337753D-05  .515363280296D+04
     .446400000000D+06  .199303030968D-06  .683504282171D+00 -.229105353355D-06
     .933275163022D+00  .236562500000D+03 -.196420262552D+01 -.796354599937D-08
     .411802867528D-09  .100000000000D+01  .182500000000D+04  .000000000000D+00
     .240000000000D+01  .000000000000D+00 -.116415321827D-07  .750000000000D+02
     .439206000000D+06  .400000000000D+01
22 15  1  2  4  0  0.0  .303037930280D-03  .397903932026D-11  .000000000000D+00
     .630000000000D+02 -.238750000000D+02  .563916346522D-08  .159576947948D+01
    -.127218663692D-05  .734457664657D-02  .688619911671D-05  .515370301819D+04
     .446400000000D+06 -.176951289177D-06  .172924533799D+01 -.633299350739D-07
     .922609613937D+00  .227093750000D+03 -.206831555598D+01 -.854821321025D-08
    -.360729311538D-09  .100000000000D+01  .182500000000D+04  .000000000000D+00
     .340000000000D+01  .000000000000D+00 -.176951289177D-07  .630000000000D+02
     .439206000000D+06  .400000000000D+01
23 15  1  2  4  0  0.0 -.787563621998D-04 -.272848410532D-11  .000000000000D+00
     .101000000000D+03  .860000000000D+02  .450733060555D-08 -.669911653446D+00
     .452995300293D-05  .970439147204D-02  .111553817987D-04  .515369090271D+04
     .446400000000D+06  .191852450371D-06  .279738736200D+01  .875443220139D-07
     .949950743844D+00  .156687500000D+03 -.271759582351D+01 -.802354849872D-08
    -.133934150324D-09  .100000000000D+01  .182500000000D+04  .000000000000D+00
     .340000000000D+01  .000000000000D+00 -.200234353542D-07  .101000000000D+03
     .439206000000D+06  .400000000000D+01
24 15  1  2  4  0  0.0 -.410578213632D-04 -.568434188608D-12  .000000000000D+00
     .810000000000D+02  .916875000000D+02  .480377152494D-08 -.128878958964D+01
     .468455255032D-05  .280871393625D-02  .340305268764D-05  .515369327164D+04
     .446400000000D+06  .186264514923D-08 -.245929485020D+01 -.149011611938D-07
     .955086526959D+00  .310750000000D+03  .231833084070D+00 -.837534886690D-08
     .276082928534D-09  .100000000000D+01  .182500000000D+04  .000000000000D+00
     .240000000000D+01  .000000000000D+00  .279396772385D-08  .810000000000D+02
     .439206000000D+06  .400000000000D+01
25 15  1  2  4  0  0.0  .583520159125D-05 -.227373675443D-11  .000000000000D+00
     .690000000000D+02 -.804687500000D+02  .424053377811D-08  .294988443101D+01
    -.425614416599D-05  .394949631300D-02  .350177288055D-05  .515374565125D+04
     .446400000000D+06 -.763684511185D-07 -.139916539381D+01 -.596046447754D-07
     .977382883349D+00  .319718750000D+03  .665078647561D+00 -.806105006081D-08
    -.248938940735D-09  .100000000000D+01  .182500000000D+04  .000000000000D+00
     .240000000000D+01  .000000000000D+00  .512227416039D-08  .690000000000D+02
     .439206000000D+06  .400000000000D+01
26 15  1  2  4  0  0.0 -.178020913154D-03 -.133013600134D-10  .000000000000D+00
     .880000000000D+02  .799375000000D+02  .415517307964D-08 -.670973199470D+00
     .440701842308D-05  .214515585685D-01  .108275562525D-04  .515369049072D+04
     .446400000000D+06 -.184401869774D-06  .289048524200D+01  .258907675743D-06
     .973111481473D+00  .185125000000D+03  .130061453641D+01 -.808676541767D-08
    -.317870383435D-10  .100000000000D+01  .182500000000D+04  .000000000000D+00
     .340000000000D+01  .000000000000D+00 -.651925802231D-08  .880000000000D+02
     .439206000000D+06  .400000000000D+01
28 15  1  2  4  0  0.0  .409533269703D-03  .261479726760D-11  .000000000000D+00
     .220000000000D+02 -.109062500000D+03  .405195449445D-08  .139217597500D+01
    -.605545938015D-05  .197562108515D-01  .392459332943D-05  .515369082642D+04
     .446400000000D+06 -.178813934326D-06 -.133002985301D+01 -.428408384323D-06
     .987947536438D+00  .325343750000D+03 -.168487364433D+01 -.815426822943D-08
    -.305012705003D-09  .100000000000D+01  .182500000000D+04  .000000000000D+00
     .240000000000D+01  .000000000000D+00 -.111758708954D-07  .220000000000D+02
     .439206000000D+06  .400000000000D+01
29 15  1  2  4  0  0.0  .583332497627D-03  .227373675443D-11  .000000000000D+00
     .630000000000D+02 -.616250000000D+02  .395516474849D-08 -.287254138874D+01
    -.329874455929D-05  .122043234296D-02  .108331441879D-04  .515358237648D+04
     .446400000000D+06 -.745058059692D-08 -.297510896569D+00 -.111758708954D-07
     .972106458216D+00  .175656250000D+03 -.871364385058D+00 -.764317551180D-08
     .143220251413D-09  .100000000000D+01  .182500000000D+04  .000000000000D+00
     .240000000000D+01  .000000000000D+00 -.977888703346D-08  .630000000000D+02
     .439206000000D+06  .400000000000D+01
